{"type": "FeatureCollection", "features": [ {"type": "Feature", "properties": {"norad_id": 64901, "name": "CO3D 4", "group": "resource", "lat": 77.98466178808293, "lon": -88.97838759933987, "alt_km": 498.53904610112113, "timestamp": "2025-12-02T15:49:06.841000+00:00", "meta": {"OBJECT_NAME": "CO3D 4", "OBJECT_ID": "2025-156C", "EPOCH": "2025-12-01T18:50:45.474720", "MEAN_MOTION": 15.20204195, "ECCENTRICITY": 0.00012108, "INCLINATION": 97.4354, "RA_OF_ASC_NODE": 52.3098, "ARG_OF_PERICENTER": 238.3057, "MEAN_ANOMALY": 121.806, "EPHEMERIS_TYPE": 0, "CLASSIFICATION_TYPE": "U", "NORAD_CAT_ID": 64901, "ELEMENT_SET_NO": 999, "REV_AT_EPOCH": 1954, "BSTAR": -1.4420799e-05, "MEAN_MOTION_DOT": -3.8e-06, "MEAN_MOTION_DDOT": 0}, "tle": {"line1": "1 64901U 25156C   25335.78524855 -.00000380  00000+0 -14421-4 0  9999", "line2": "2 64901  97.4354  52.3098 0001210 238.3057 121.8060 15.20204195 19549"}}, "geometry": {"type": "Point", "coordinates": [-88.97838759933987, 77.98466178808293]}}, {"type": "Feature", "properties": {"norad_id": 64902, "name": "CO3D 2", "group": "resource", "lat": -76.09147347810263, "lon": 84.8979364889322, "alt_km": 513.2268873491184, "timestamp": "2025-12-02T15:49:06.841010+00:00", "meta": {"OBJECT_NAME": "CO3D 2", "OBJECT_ID": "2025-156D", "EPOCH": "2025-12-02T06:41:01.625856", "MEAN_MOTION": 15.20198757, "ECCENTRICITY": 9.72e-05, "INCLINATION": 97.4353, "RA_OF_ASC_NODE": 52.6946, "ARG_OF_PERICENTER": 113.8756, "MEAN_ANOMALY": 246.2581, "EPHEMERIS_TYPE": 0, "CLASSIFICATION_TYPE": "U", "NORAD_CAT_ID": 64902, "ELEMENT_SET_NO": 999, "REV_AT_EPOCH": 1961, "BSTAR": 0.00034844167, "MEAN_MOTION_DOT": 7.482e-05, "MEAN_MOTION_DDOT": 0}, "tle": {"line1": "1 64902U 25156D   25336.27849104  .00007482  00000+0  34844-3 0  9990", "line2": "2 64902  97.4353  52.6946 0000972 113.8756 246.2581 15.20198757 19615"}}, "geometry": {"type": "Point", "coordinates": [84.8979364889322, -76.09147347810263]}}, {"type": "Feature", "properties": {"norad_id": 64903, "name": "CO3D 1", "group": "resource", "lat": -76.7825923030348, "lon": 86.85289756579697, "alt_km": 513.2434203124958, "timestamp": "2025-12-02T15:49:06.841019+00:00", "meta": {"OBJECT_NAME": "CO3D 1", "OBJECT_ID": "2025-156E", "EPOCH": "2025-12-02T06:41:14.935776", "MEAN_MOTION": 15.20204295, "ECCENTRICITY": 0.0001049, "INCLINATION": 97.4355, "RA_OF_ASC_NODE": 52.6948, "ARG_OF_PERICENTER": 117.5954, "MEAN_ANOMALY": 242.5388, "EPHEMERIS_TYPE": 0, "CLASSIFICATION_TYPE": "U", "NORAD_CAT_ID": 64903, "ELEMENT_SET_NO": 999, "REV_AT_EPOCH": 1961, "BSTAR": 0.00054100769, "MEAN_MOTION_DOT": 0.00011663, "MEAN_MOTION_DDOT": 0}, "tle": {"line1": "1 64903U 25156E   25336.27864509  .00011663  00000+0  54101-3 0  9991", "line2": "2 64903  97.4355  52.6948 0001049 117.5954 242.5388 15.20204295 19616"}}, "geometry": {"type": "Point", "coordinates": [86.85289756579697, -76.7825923030348]}}, {"type": "Feature", "properties": {"norad_id": 66514, "name": "SENTINEL-6B", "group": "resource", "lat": -41.25858256782293, "lon": 160.5206495421847, "alt_km": 1317.290725539071, "timestamp": "2025-12-02T15:49:06.841029+00:00", "meta": {"OBJECT_NAME": "SENTINEL-6B", "OBJECT_ID": "2025-264A", "EPOCH": "2025-12-02T01:07:30.457056", "MEAN_MOTION": 12.85877319, "ECCENTRICITY": 0.00115275, "INCLINATION": 66.0388, "RA_OF_ASC_NODE": 184.7629, "ARG_OF_PERICENTER": 268.8495, "MEAN_ANOMALY": 91.1202, "EPHEMERIS_TYPE": 0, "CLASSIFICATION_TYPE": "U", "NORAD_CAT_ID": 66514, "ELEMENT_SET_NO": 999, "REV_AT_EPOCH": 191, "BSTAR": 0.0003263787, "MEAN_MOTION_DOT": 1.9e-07, "MEAN_MOTION_DDOT": 0}, "tle": {"line1": "1 66514U 25264A   25336.04688029  .00000019  00000+0  32638-3 0  9991", "line2": "2 66514  66.0388 184.7629 0011527 268.8495  91.1202 12.85877319  1917"}}, "geometry": {"type": "Point", "coordinates": [160.5206495421847, -41.25858256782293]}}]}